STARLINK-31716          
1 59377U 24062D   26068.67171447 -.00000207  00000+0  51345-5 0  9996
2 59377  53.1595 207.0980 0000929  87.9131 272.1976 15.30192908110303
KUIPER-00175            
1 67135U 25301C   26068.97960463  .00019968  00000+0  66732-3 0  9998
2 67135  51.8781  63.6978 0002279  50.5695 309.5490 15.30996371 13854
